KUIPER-00112            
1 65150U 25171U   25280.85393676  .00055293  00000+0  15084-2 0  9990
2 65150  51.8760 128.1980 0004788   5.3648 354.7389 15.36895484 10056
KUIPER-00114            
1 65151U 25171V   25279.86320570  .00015133  00000+0  11612-2 0  9995
2 65151  51.8887 137.0248 0001278 245.1959 114.8880 15.01955753  9847
KUIPER-00115            
1 65152U 25171W   25280.85503962 -.00235599  00000+0 -10749-1 0  9996
2 65152  51.8833 128.9444 0008026 345.7219  14.3532 15.21150922 10049
KUIPER-00116            
1 65153U 25171X   25280.83335647 -.00004642  00000+0 -29649-3 0  9992
2 65153  51.8899 131.1771 0007329 310.8381 251.3784 15.05892487  4315
KUIPER-00118            
1 65154U 25171Y   25280.83335647 -.01629423  00000+0 -14269+0 0  9992
2 65154  51.8892 132.4578 0003135 333.3636  41.8307 14.99629522  5361
KUIPER-00119            
1 65155U 25171Z   25280.84448644  .00066871  00000+0  22339-2 0  9995
2 65155  51.8780 128.0985 0002461 352.9313   7.1636 15.30396927 10059
